{
  "type": "FeatureCollection",
  "features": [
    {
      "type": "Feature",
      "properties": {
        "norad_id": 29994,
        "name": "FENGYUN 1C DEB",
        "group": "fengyun-1c-debris",
        "lat": -80.79589688110543,
        "lon": 90.32087644196882,
        "alt_km": 833.9043050177006,
        "timestamp": "2025-12-10T09:57:44.972305+00:00",
        "meta_object_name": "FENGYUN 1C DEB",
        "meta_object_id": "1999-025LU",
        "meta_epoch": "2025-12-10T02:05:25.478016",
        "meta_mean_motion": 14.02641797,
        "meta_eccentricity": 0.0129516,
        "meta_inclination": 98.8297,
        "meta_ra_of_asc_node": 16.4142,
        "meta_arg_of_pericenter": 221.0473,
        "meta_mean_anomaly": 195.037,
        "meta_ephemeris_type": 0,
        "meta_classification_type": "U",
        "meta_norad_cat_id": 29994,
        "meta_element_set_no": 999,
        "meta_rev_at_epoch": 96689,
        "meta_bstar": 0.00024075,
        "meta_mean_motion_dot": 3.57e-06,
        "meta_mean_motion_ddot": 0,
        "tle_line1": "1 29994U 99025LU  25344.08710044  .00000357  00000+0  24075-3 0  9995",
        "tle_line2": "2 29994  98.8297  16.4142 0129516 221.0473 195.0370 14.02641797966893"
      },
      "geometry": {
        "type": "Point",
        "coordinates": [
          90.32087644196882,
          -80.79589688110543
        ]
      }
    },
    {
      "type": "Feature",
      "properties": {
        "norad_id": 29996,
        "name": "FENGYUN 1C DEB",
        "group": "fengyun-1c-debris",
        "lat": 33.73524824439758,
        "lon": 15.431905498877532,
        "alt_km": 810.6890301040203,
        "timestamp": "2025-12-10T09:57:44.972315+00:00",
        "meta_object_name": "FENGYUN 1C DEB",
        "meta_object_id": "1999-025LW",
        "meta_epoch": "2025-12-10T01:33:53.896032",
        "meta_mean_motion": 14.0939159,
        "meta_eccentricity": 0.0131931,
        "meta_inclination": 99.3033,
        "meta_ra_of_asc_node": 21.3551,
        "meta_arg_of_pericenter": 95.4228,
        "meta_mean_anomaly": 325.8819,
        "meta_ephemeris_type": 0,
        "meta_classification_type": "U",
        "meta_norad_cat_id": 29996,
        "meta_element_set_no": 999,
        "meta_rev_at_epoch": 96099,
        "meta_bstar": 0.0022899,
        "meta_mean_motion_dot": 4.285e-05,
        "meta_mean_motion_ddot": 0,
        "tle_line1": "1 29996U 99025LW  25344.06520713  .00004285  00000+0  22899-2 0  9992",
        "tle_line2": "2 29996  99.3033  21.3551 0131931  95.4228 325.8819 14.09391590960999"
      },
      "geometry": {
        "type": "Point",
        "coordinates": [
          15.431905498877532,
          33.73524824439758
        ]
      }
    },
    {
      "type": "Feature",
      "properties": {
        "norad_id": 29997,
        "name": "FENGYUN 1C DEB",
        "group": "fengyun-1c-debris",
        "lat": 57.748111099916876,
        "lon": -170.72558487676258,
        "alt_km": 934.1155198639835,
        "timestamp": "2025-12-10T09:57:44.972325+00:00",
        "meta_object_name": "FENGYUN 1C DEB",
        "meta_object_id": "1999-025LX",
        "meta_epoch": "2025-12-09T20:15:45.054144",
        "meta_mean_motion": 14.00868066,
        "meta_eccentricity": 0.0080273,
        "meta_inclination": 98.8812,
        "meta_ra_of_asc_node": 354.3725,
        "meta_arg_of_pericenter": 335.4208,
        "meta_mean_anomaly": 147.9592,
        "meta_ephemeris_type": 0,
        "meta_classification_type": "U",
        "meta_norad_cat_id": 29997,
        "meta_element_set_no": 999,
        "meta_rev_at_epoch": 96349,
        "meta_bstar": 0.0012062,
        "meta_mean_motion_dot": 1.81e-05,
        "meta_mean_motion_ddot": 0,
        "tle_line1": "1 29997U 99025LX  25343.84427146  .00001810  00000+0  12062-2 0  9996",
        "tle_line2": "2 29997  98.8812 354.3725 0080273 335.4208 147.9592 14.00868066963495"
      },
      "geometry": {
        "type": "Point",
        "coordinates": [
          -170.72558487676258,
          57.748111099916876
        ]
      }
    },
    {
      "type": "Feature",
      "properties": {
        "norad_id": 29998,
        "name": "FENGYUN 1C DEB",
        "group": "fengyun-1c-debris",
        "lat": 39.527672427392474,
        "lon": -127.56562021255834,
        "alt_km": 796.8631531509482,
        "timestamp": "2025-12-10T09:57:44.972335+00:00",
        "meta_object_name": "FENGYUN 1C DEB",
        "meta_object_id": "1999-025LY",
        "meta_epoch": "2025-12-10T02:35:10.567680",
        "meta_mean_motion": 14.28527125,
        "meta_eccentricity": 0.0004715,
        "meta_inclination": 99.3062,
        "meta_ra_of_asc_node": 44.3308,
        "meta_arg_of_pericenter": 308.4077,
        "meta_mean_anomaly": 51.6678,
        "meta_ephemeris_type": 0,
        "meta_classification_type": "U",
        "meta_norad_cat_id": 29998,
        "meta_element_set_no": 999,
        "meta_rev_at_epoch": 97837,
        "meta_bstar": 0.0011747,
        "meta_mean_motion_dot": 2.896e-05,
        "meta_mean_motion_ddot": 0,
        "tle_line1": "1 29998U 99025LY  25344.10776120  .00002896  00000+0  11747-2 0  9990",
        "tle_line2": "2 29998  99.3062  44.3308 0004715 308.4077  51.6678 14.28527125978370"
      },
      "geometry": {
        "type": "Point",
        "coordinates": [
          -127.56562021255834,
          39.527672427392474
        ]
      }
    },
    {
      "type": "Feature",
      "properties": {
        "norad_id": 29999,
        "name": "FENGYUN 1C DEB",
        "group": "fengyun-1c-debris",
        "lat": -33.45568259079139,
        "lon": -25.52786041813806,
        "alt_km": 963.9134502168736,
        "timestamp": "2025-12-10T09:57:44.972345+00:00",
        "meta_object_name": "FENGYUN 1C DEB",
        "meta_object_id": "1999-025LZ",
        "meta_epoch": "2025-12-09T18:01:19.563168",
        "meta_mean_motion": 14.20128334,
        "meta_eccentricity": 0.0189458,
        "meta_inclination": 98.5761,
        "meta_ra_of_asc_node": 328.1052,
        "meta_arg_of_pericenter": 135.1709,
        "meta_mean_anomaly": 37.8504,
        "meta_ephemeris_type": 0,
        "meta_classification_type": "U",
        "meta_norad_cat_id": 29999,
        "meta_element_set_no": 999,
        "meta_rev_at_epoch": 97681,
        "meta_bstar": 0.00042399,
        "meta_mean_motion_dot": 1.04e-05,
        "meta_mean_motion_ddot": 0,
        "tle_line1": "1 29999U 99025LZ  25343.75092087  .00001040  00000+0  42399-3 0  9992",
        "tle_line2": "2 29999  98.5761 328.1052 0189458 135.1709  37.8504 14.20128334976814"
      },
      "geometry": {
        "type": "Point",
        "coordinates": [
          -25.52786041813806,
          -33.45568259079139
        ]
      }
    },
    {
      "type": "Feature",
      "properties": {
        "norad_id": 30001,
        "name": "FENGYUN 1C DEB",
        "group": "fengyun-1c-debris",
        "lat": 58.41257062616674,
        "lon": -105.77418808280967,
        "alt_km": 731.310350942671,
        "timestamp": "2025-12-10T09:57:44.972356+00:00",
        "meta_object_name": "FENGYUN 1C DEB",
        "meta_object_id": "1999-025MA",
        "meta_epoch": "2025-12-10T04:31:39.398880",
        "meta_mean_motion": 14.38513615,
        "meta_eccentricity": 0.0038245,
        "meta_inclination": 98.9588,
        "meta_ra_of_asc_node": 59.1245,
        "meta_arg_of_pericenter": 106.1781,
        "meta_mean_anomaly": 282.0132,
        "meta_ephemeris_type": 0,
        "meta_classification_type": "U",
        "meta_norad_cat_id": 30001,
        "meta_element_set_no": 999,
        "meta_rev_at_epoch": 97395,
        "meta_bstar": 0.0037576,
        "meta_mean_motion_dot": 0.00011554,
        "meta_mean_motion_ddot": 0,
        "tle_line1": "1 30001U 99025MA  25344.18865045  .00011554  00000+0  37576-2 0  9999",
        "tle_line2": "2 30001  98.9588  59.1245 0038245 106.1781 282.0132 14.38513615973953"
      },
      "geometry": {
        "type": "Point",
        "coordinates": [
          -105.77418808280967,
          58.41257062616674
        ]
      }
    },
    {
      "type": "Feature",
      "properties": {
        "norad_id": 30003,
        "name": "FENGYUN 1C DEB",
        "group": "fengyun-1c-debris",
        "lat": 8.490564214973046,
        "lon": -42.27931743280244,
        "alt_km": 992.5734574021162,
        "timestamp": "2025-12-10T09:57:44.972366+00:00",
        "meta_object_name": "FENGYUN 1C DEB",
        "meta_object_id": "1999-025MC",
        "meta_epoch": "2025-12-09T17:26:11.982048",
        "meta_mean_motion": 13.85620622,
        "meta_eccentricity": 0.0143324,
        "meta_inclination": 99.5763,
        "meta_ra_of_asc_node": 318.4614,
        "meta_arg_of_pericenter": 127.8113,
        "meta_mean_anomaly": 49.4226,
        "meta_ephemeris_type": 0,
        "meta_classification_type": "U",
        "meta_norad_cat_id": 30003,
        "meta_element_set_no": 999,
        "meta_rev_at_epoch": 95446,
        "meta_bstar": 0.00042843,
        "meta_mean_motion_dot": 4.85e-06,
        "meta_mean_motion_ddot": 0,
        "tle_line1": "1 30003U 99025MC  25343.72652757  .00000485  00000+0  42843-3 0  9999",
        "tle_line2": "2 30003  99.5763 318.4614 0143324 127.8113  49.4226 13.85620622954464"
      },
      "geometry": {
        "type": "Point",
        "coordinates": [
          -42.27931743280244,
          8.490564214973046
        ]
      }
    }
  ]
}